[{"OBJECT_NAME":"STARLINK-30567","OBJECT_ID":"2023-158S","EPOCH":"2026-03-09T05:08:04.180992","MEAN_MOTION":15.27587017,"ECCENTRICITY":9.171e-5,"INCLINATION":43.0022,"RA_OF_ASC_NODE":30.0257,"ARG_OF_PERICENTER":296.0738,"MEAN_ANOMALY":64.0019,"EPHEMERIS_TYPE":0,"CLASSIFICATION_TYPE":"U","NORAD_CAT_ID":58067,"ELEMENT_SET_NO":999,"REV_AT_EPOCH":13349,"BSTAR":4.8509402e-5,"MEAN_MOTION_DOT":1.073e-5,"MEAN_MOTION_DDOT":0},{"OBJECT_NAME":"CZ-4C R\/B","OBJECT_ID":"2022-039B","EPOCH":"2026-03-09T15:51:32.485824","MEAN_MOTION":15.03008334,"ECCENTRICITY":0.0113659,"INCLINATION":98.2525,"RA_OF_ASC_NODE":105.9247,"ARG_OF_PERICENTER":45.8852,"MEAN_ANOMALY":315.1654,"EPHEMERIS_TYPE":0,"CLASSIFICATION_TYPE":"U","NORAD_CAT_ID":52258,"ELEMENT_SET_NO":999,"REV_AT_EPOCH":21291,"BSTAR":0.00022979194,"MEAN_MOTION_DOT":3.483e-5,"MEAN_MOTION_DDOT":0}]
